[{"OBJECT_NAME":"ONEWEB-0113","OBJECT_ID":"2021-025J","EPOCH":"2026-01-16T04:07:44.198976","MEAN_MOTION":13.1398678,"ECCENTRICITY":0.00019742,"INCLINATION":87.9006,"RA_OF_ASC_NODE":350.3669,"ARG_OF_PERICENTER":79.9107,"MEAN_ANOMALY":280.2245,"EPHEMERIS_TYPE":0,"CLASSIFICATION_TYPE":"U","NORAD_CAT_ID":48050,"ELEMENT_SET_NO":999,"REV_AT_EPOCH":23364,"BSTAR":-0.00075637779,"MEAN_MOTION_DOT":-2.66e-6,"MEAN_MOTION_DDOT":0},{"OBJECT_NAME":"ONEWEB-0112","OBJECT_ID":"2021-025K","EPOCH":"2026-01-16T05:04:39.733536","MEAN_MOTION":13.13470141,"ECCENTRICITY":0.0001512,"INCLINATION":87.9008,"RA_OF_ASC_NODE":350.4012,"ARG_OF_PERICENTER":85.2437,"MEAN_ANOMALY":274.8865,"EPHEMERIS_TYPE":0,"CLASSIFICATION_TYPE":"U","NORAD_CAT_ID":48051,"ELEMENT_SET_NO":999,"REV_AT_EPOCH":23364,"BSTAR":0.00080740613,"MEAN_MOTION_DOT":3.08e-6,"MEAN_MOTION_DDOT":0},{"OBJECT_NAME":"ONEWEB-0156","OBJECT_ID":"2021-025L","EPOCH":"2026-01-15T23:47:45.947328","MEAN_MOTION":13.13471256,"ECCENTRICITY":0.0001782,"INCLINATION":87.9007,"RA_OF_ASC_NODE":350.4564,"ARG_OF_PERICENTER":87.7963,"MEAN_ANOMALY":272.337,"EPHEMERIS_TYPE":0,"CLASSIFICATION_TYPE":"U","NORAD_CAT_ID":48052,"ELEMENT_SET_NO":999,"REV_AT_EPOCH":23359,"BSTAR":0.00077408617,"MEAN_MOTION_DOT":2.95e-6,"MEAN_MOTION_DDOT":0},{"OBJECT_NAME":"ONEWEB-0161","OBJECT_ID":"2021-025M","EPOCH":"2026-01-16T04:40:17.505120","MEAN_MOTION":13.13470837,"ECCENTRICITY":0.00017514,"INCLINATION":87.9001,"RA_OF_ASC_NODE":350.4292,"ARG_OF_PERICENTER":89.7571,"MEAN_ANOMALY":270.3759,"EPHEMERIS_TYPE":0,"CLASSIFICATION_TYPE":"U","NORAD_CAT_ID":48053,"ELEMENT_SET_NO":999,"REV_AT_EPOCH":23355,"BSTAR":-0.00043223527,"MEAN_MOTION_DOT":-1.45e-6,"MEAN_MOTION_DDOT":0},{"OBJECT_NAME":"ONEWEB-0158","OBJECT_ID":"2021-025N","EPOCH":"2026-01-15T22:12:42.456960","MEAN_MOTION":13.13469323,"ECCENTRICITY":0.00017308,"INCLINATION":87.9007,"RA_OF_ASC_NODE":350.4692,"ARG_OF_PERICENTER":72.425,"MEAN_ANOMALY":287.7068,"EPHEMERIS_TYPE":0,"CLASSIFICATION_TYPE":"U","NORAD_CAT_ID":48054,"ELEMENT_SET_NO":999,"REV_AT_EPOCH":23364,"BSTAR":0.00037168465,"MEAN_MOTION_DOT":1.48e-6,"MEAN_MOTION_DDOT":0},{"OBJECT_NAME":"ONEWEB-0157","OBJECT_ID":"2021-025P","EPOCH":"2026-01-15T20:59:34.109376","MEAN_MOTION":13.13470165,"ECCENTRICITY":0.0001615,"INCLINATION":87.9005,"RA_OF_ASC_NODE":350.4849,"ARG_OF_PERICENTER":96.3403,"MEAN_ANOMALY":263.791,"EPHEMERIS_TYPE":0,"CLASSIFICATION_TYPE":"U","NORAD_CAT_ID":48055,"ELEMENT_SET_NO":999,"REV_AT_EPOCH":23357,"BSTAR":-0.00074669784,"MEAN_MOTION_DOT":-2.6e-6,"MEAN_MOTION_DDOT":0},{"OBJECT_NAME":"ONEWEB-0162","OBJECT_ID":"2021-025Q","EPOCH":"2026-01-16T03:44:01.720608","MEAN_MOTION":13.13469822,"ECCENTRICITY":0.00018951,"INCLINATION":87.9012,"RA_OF_ASC_NODE":350.4323,"ARG_OF_PERICENTER":86.6008,"MEAN_ANOMALY":273.5338,"EPHEMERIS_TYPE":0,"CLASSIFICATION_TYPE":"U","NORAD_CAT_ID":48056,"ELEMENT_SET_NO":999,"REV_AT_EPOCH":23358,"BSTAR":0.00035309927,"MEAN_MOTION_DOT":1.42e-6,"MEAN_MOTION_DDOT":0},{"OBJECT_NAME":"ONEWEB-0155","OBJECT_ID":"2021-025R","EPOCH":"2026-01-16T03:53:57.628320","MEAN_MOTION":13.13470272,"ECCENTRICITY":0.00015757,"INCLINATION":87.9001,"RA_OF_ASC_NODE":350.4343,"ARG_OF_PERICENTER":85.478,"MEAN_ANOMALY":274.6529,"EPHEMERIS_TYPE":0,"CLASSIFICATION_TYPE":"U","NORAD_CAT_ID":48057,"ELEMENT_SET_NO":999,"REV_AT_EPOCH":23372,"BSTAR":-9.9561503e-5,"MEAN_MOTION_DOT":-2.4e-7,"MEAN_MOTION_DDOT":0},{"OBJECT_NAME":"ONEWEB-0149","OBJECT_ID":"2021-025S","EPOCH":"2026-01-16T04:25:40.032768","MEAN_MOTION":13.13469635,"ECCENTRICITY":0.0001976,"INCLINATION":87.9006,"RA_OF_ASC_NODE":350.4237,"ARG_OF_PERICENTER":86.727,"MEAN_ANOMALY":273.4085,"EPHEMERIS_TYPE":0,"CLASSIFICATION_TYPE":"U","NORAD_CAT_ID":48058,"ELEMENT_SET_NO":999,"REV_AT_EPOCH":23353,"BSTAR":-0.00078731732,"MEAN_MOTION_DOT":-2.75e-6,"MEAN_MOTION_DDOT":0},{"OBJECT_NAME":"ONEWEB-0148","OBJECT_ID":"2021-025T","EPOCH":"2026-01-16T05:21:44.604288","MEAN_MOTION":13.13469522,"ECCENTRICITY":0.00022284,"INCLINATION":87.8999,"RA_OF_ASC_NODE":350.4336,"ARG_OF_PERICENTER":95.4104,"MEAN_ANOMALY":264.7279,"EPHEMERIS_TYPE":0,"CLASSIFICATION_TYPE":"U","NORAD_CAT_ID":48059,"ELEMENT_SET_NO":999,"REV_AT_EPOCH":23366,"BSTAR":0.00085817713,"MEAN_MOTION_DOT":3.26e-6,"MEAN_MOTION_DDOT":0},{"OBJECT_NAME":"ONEWEB-0160","OBJECT_ID":"2021-025U","EPOCH":"2026-01-16T03:56:24.974016","MEAN_MOTION":13.13469403,"ECCENTRICITY":0.00021068,"INCLINATION":87.9,"RA_OF_ASC_NODE":350.4426,"ARG_OF_PERICENTER":62.8801,"MEAN_ANOMALY":297.2543,"EPHEMERIS_TYPE":0,"CLASSIFICATION_TYPE":"U","NORAD_CAT_ID":48060,"ELEMENT_SET_NO":999,"REV_AT_EPOCH":23360,"BSTAR":-0.00022768162,"MEAN_MOTION_DOT":-7.0e-7,"MEAN_MOTION_DDOT":0},{"OBJECT_NAME":"ONEWEB-0163","OBJECT_ID":"2021-025V","EPOCH":"2026-01-16T03:34:28.487712","MEAN_MOTION":13.13470584,"ECCENTRICITY":0.00016293,"INCLINATION":87.9006,"RA_OF_ASC_NODE":350.4346,"ARG_OF_PERICENTER":92.6062,"MEAN_ANOMALY":267.5253,"EPHEMERIS_TYPE":0,"CLASSIFICATION_TYPE":"U","NORAD_CAT_ID":48061,"ELEMENT_SET_NO":999,"REV_AT_EPOCH":23372,"BSTAR":0.00068682078,"MEAN_MOTION_DOT":2.64e-6,"MEAN_MOTION_DDOT":0},{"OBJECT_NAME":"ONEWEB-0159","OBJECT_ID":"2021-025W","EPOCH":"2026-01-16T05:11:59.455968","MEAN_MOTION":13.13470152,"ECCENTRICITY":0.00018021,"INCLINATION":87.9008,"RA_OF_ASC_NODE":350.4055,"ARG_OF_PERICENTER":90.7392,"MEAN_ANOMALY":269.3943,"EPHEMERIS_TYPE":0,"CLASSIFICATION_TYPE":"U","NORAD_CAT_ID":48062,"ELEMENT_SET_NO":999,"REV_AT_EPOCH":23365,"BSTAR":0.0010724029,"MEAN_MOTION_DOT":4.04e-6,"MEAN_MOTION_DDOT":0},{"OBJECT_NAME":"ONEWEB-0164","OBJECT_ID":"2021-025X","EPOCH":"2026-01-16T04:45:08.981568","MEAN_MOTION":13.13471697,"ECCENTRICITY":0.00017484,"INCLINATION":87.9009,"RA_OF_ASC_NODE":350.4158,"ARG_OF_PERICENTER":80.4462,"MEAN_ANOMALY":279.6865,"EPHEMERIS_TYPE":0,"CLASSIFICATION_TYPE":"U","NORAD_CAT_ID":48063,"ELEMENT_SET_NO":999,"REV_AT_EPOCH":23363,"BSTAR":-0.0002287959,"MEAN_MOTION_DOT":-7.1e-7,"MEAN_MOTION_DDOT":0},{"OBJECT_NAME":"ONEWEB-0167","OBJECT_ID":"2021-025Y","EPOCH":"2026-01-16T03:35:41.816256","MEAN_MOTION":13.13470513,"ECCENTRICITY":0.00010517,"INCLINATION":87.9002,"RA_OF_ASC_NODE":350.4498,"ARG_OF_PERICENTER":90.9512,"MEAN_ANOMALY":269.1738,"EPHEMERIS_TYPE":0,"CLASSIFICATION_TYPE":"U","NORAD_CAT_ID":48064,"ELEMENT_SET_NO":999,"REV_AT_EPOCH":23361,"BSTAR":0.00064394664,"MEAN_MOTION_DOT":2.48e-6,"MEAN_MOTION_DDOT":0},{"OBJECT_NAME":"ONEWEB-0166","OBJECT_ID":"2021-025Z","EPOCH":"2026-01-16T04:08:36.089088","MEAN_MOTION":13.13469561,"ECCENTRICITY":0.00018888,"INCLINATION":87.9008,"RA_OF_ASC_NODE":350.4039,"ARG_OF_PERICENTER":88.3705,"MEAN_ANOMALY":271.7641,"EPHEMERIS_TYPE":0,"CLASSIFICATION_TYPE":"U","NORAD_CAT_ID":48065,"ELEMENT_SET_NO":999,"REV_AT_EPOCH":23369,"BSTAR":-0.00076764614,"MEAN_MOTION_DOT":-2.68e-6,"MEAN_MOTION_DDOT":0}]
