ONEWEB-0113             
1 48050U 21025J   26016.17203934 -.00000266  00000+0 -75638-3 0  9998
2 48050  87.9006 350.3669 0001974  79.9107 280.2245 13.13986780233642
ONEWEB-0112             
1 48051U 21025K   26016.21157099  .00000308  00000+0  80741-3 0  9990
2 48051  87.9008 350.4012 0001512  85.2437 274.8865 13.13470141233648
ONEWEB-0156             
1 48052U 21025L   26015.99150402  .00000295  00000+0  77409-3 0  9998
2 48052  87.9007 350.4564 0001782  87.7963 272.3370 13.13471256233596
ONEWEB-0161             
1 48053U 21025M   26016.19464705 -.00000145  00000+0 -43224-3 0  9990
2 48053  87.9001 350.4292 0001751  89.7571 270.3759 13.13470837233551
ONEWEB-0158             
1 48054U 21025N   26015.92549140  .00000148  00000+0  37168-3 0  9999
2 48054  87.9007 350.4692 0001730  72.4250 287.7068 13.13469323233645
ONEWEB-0157             
1 48055U 21025P   26015.87470034 -.00000260  00000+0 -74670-3 0  9995
2 48055  87.9005 350.4849 0001615  96.3403 263.7910 13.13470165233573
ONEWEB-0162             
1 48056U 21025Q   26016.15557547  .00000142  00000+0  35310-3 0  9998
2 48056  87.9012 350.4323 0001895  86.6008 273.5338 13.13469822233584
ONEWEB-0155             
1 48057U 21025R   26016.16247255 -.00000024  00000+0 -99562-4 0  9993
2 48057  87.9001 350.4343 0001575  85.4780 274.6529 13.13470272233725
ONEWEB-0149             
1 48058U 21025S   26016.18449112 -.00000275  00000+0 -78732-3 0  9995
2 48058  87.9006 350.4237 0001976  86.7270 273.4085 13.13469635233530
ONEWEB-0148             
1 48059U 21025T   26016.22343292  .00000326  00000+0  85818-3 0  9991
2 48059  87.8999 350.4336 0002228  95.4104 264.7279 13.13469522233662
ONEWEB-0160             
1 48060U 21025U   26016.16417794 -.00000070  00000+0 -22768-3 0  9998
2 48060  87.9000 350.4426 0002106  62.8801 297.2543 13.13469403233602
ONEWEB-0163             
1 48061U 21025V   26016.14894083  .00000264  00000+0  68682-3 0  9995
2 48061  87.9006 350.4346 0001629  92.6062 267.5253 13.13470584233722
ONEWEB-0159             
1 48062U 21025W   26016.21666037  .00000404  00000+0  10724-2 0  9999
2 48062  87.9008 350.4055 0001802  90.7392 269.3943 13.13470152233659
ONEWEB-0164             
1 48063U 21025X   26016.19802062 -.00000071  00000+0 -22880-3 0  9996
2 48063  87.9009 350.4158 0001748  80.4462 279.6865 13.13471697233638
ONEWEB-0167             
1 48064U 21025Y   26016.14978954  .00000248  00000+0  64395-3 0  9997
2 48064  87.9002 350.4498 0001051  90.9512 269.1738 13.13470513233615
ONEWEB-0166             
1 48065U 21025Z   26016.17263992 -.00000268  00000+0 -76765-3 0  9998
2 48065  87.9008 350.4039 0001888  88.3705 271.7641 13.13469561233697
